0 CARTOSAT 2F
1 43111U 18004A   26158.26265419  .00005287  00000-0  25370-3 0  9992
2 43111  97.4785 217.9944 0000143  28.1107 332.0135 15.19299337465826
0 CORVUS BC1
1 42847U 17042Y   26157.22949516  .00003751  00000-0  25816-3 0  9999
2 42847  97.4093 319.8140 0013365 122.2429 238.0096 15.06396296485445
0 NORSAT 2
1 42828U 17042D   26158.23056730  .00012246  00000-0  54230-3 0  9998
2 42828  97.4043 331.8314 0010782  87.9361 272.3109 15.21734843486222
0 CARTOSAT 2E
1 42767U 17036C   26158.23079072  .00005940  00000-0  28502-3 0  9993
2 42767  97.4277 218.1973 0003241   1.8587 358.2659 15.19247949496631
0 AO-91
1 43017U 17073E   26157.62389250  .00011671  00000-0  50849-3 0  9994
2 43017  97.4716  25.0553 0151174   5.8791 354.4168 15.12539966463797
0 CZ-4C R/B
1 43012U 17072C   26158.02657182  .00000577  00000-0  12224-3 0  9993
2 43012  98.5785 265.6940 0122445 182.6472 177.4093 14.58771893455158
0 TECHNOSAT
1 42829U 17042E   26158.00974721  .00003117  00000-0  22364-3 0  9993
2 42829  97.4271 316.0569 0018923 126.2064 234.0916 15.04893850485174
0 DSAT
1 42794U 17036AF  26157.67548527  .00007209  00000-0  33904-3 0  9998
2 42794  97.5557 136.6206 0081378 196.9112 162.9406 15.16929147489268
0 FLYING LAPTOP
1 42831U 17042G   26158.31997583  .00004419  00000-0  34861-3 0  9992
2 42831  97.4653 314.2358 0019010 153.8139 206.4051 15.01081705484979
0 CARTOSAT 2D
1 41948U 17008A   26158.21320330 -.00002158  00000-0 -99310-4 0  9992
2 41948  97.4121 217.7045 0003674 275.5836  84.4979 15.19255456516066
0 CORVUS BC2
1 42846U 17042X   26157.69867995  .00003855  00000-0  26634-3 0  9993
2 42846  97.4066 319.4581 0014152 142.1285 218.0941 15.06231398485487
0 MAKERSAT 0
1 43016U 17073D   26157.59817271  .00026582  00000-0  72748-3 0  9997
2 43016  97.4643  40.0370 0106290 311.3073  47.9054 15.31712547464840
0 JILIN-1-03
1 41914U 17002B   26158.28841709  .00013317  00000-0  32109-3 0  9993
2 41914  97.1952 165.5143 0005486 186.2268 173.8912 15.41333103520333
0 JILIN-01-04
1 43022U 17074A   26158.02986220  .00014768  00000-0  34609-3 0  9992
2 43022  97.4846 267.3745 0003248 214.7016 145.4019 15.42187278472702
0 JILIN-01-05
1 43023U 17074B   26158.00902130  .00009087  00000-0  28111-3 0  9998
2 43023  97.4853 264.0276 0003737 259.7239 100.3582 15.33717148472444
0 JILIN-01-06
1 43024U 17074C   26158.04479440  .00006028  00000-0  18812-3 0  9995
2 43024  97.4781 261.0860 0005285 276.0594  84.0046 15.33584729472289
0 FENGYUN 3D
1 43010U 17072A   26158.28088324 -.00000013  00000-0  15633-4 0  9999
2 43010  99.0128 132.5248 0002662  77.4032 282.7440 14.19736851443589
0 NOAA 20
1 43013U 17073A   26158.06274896  .00000075  00000-0  56487-4 0  9999
2 43013  98.7769  97.6155 0000521  39.1550 320.9664 14.19509897443030
0 LEMUR 2 FURIAUS
1 42840U 17042R   26158.00946106  .00019501  00000-0  67416-3 0  9993
2 42840  97.3774 336.6626 0008566 100.4881 259.7326 15.29916842486656
0 WNISAT 1R
1 42835U 17042L   26158.16385849  .00002871  00000-0  22493-3 0  9993
2 42835  97.4833 314.6454 0009954 182.5840 177.5335 15.01719289485001
0 MOHAMMED VI-A
1 43005U 17070A   26158.25269367  .00001055  00000-0  15665-3 0  9996
2 43005  97.9555 230.7208 0001558  71.6665 288.4715 14.77058425462512
0 IRIDIUM 116
1 43072U 17083C   26158.16832289  .00000245  00000-0  80390-4 0  9991
2 43072  86.3956 326.1910 0001876  93.1118 267.0293 14.34217644442737
0 IRIDIUM 113
1 42803U 17039A   26158.19369446  .00000184  00000-0  58583-4 0  9997
2 42803  86.3962 326.3575 0002309  90.4468 269.6992 14.34217808469751
0 IRIDIUM 130
1 43073U 17083D   26158.20637885  .00000242  00000-0  79331-4 0  9992
2 43073  86.3966 326.4501 0001998  87.1530 272.9894 14.34217734442680
0 SUPERVIEW-1 03
1 43099U 18002A   26158.28334047  .00017194  00000-0  43159-3 0  9996
2 43099  97.3127 243.1389 0046592 215.1678 144.6491 15.38928607466848
0 TANSAT
1 41898U 16081A   26158.24226959  .00000380  00000-0  89679-4 0  9991
2 41898  98.5367 158.2065 0020308 343.9810  16.0744 14.59942742503173
0 LEMUR 2 GREENBERG
1 42837U 17042N   26158.21896595  .00017738  00000-0  59289-3 0  9997
2 42837  97.3821 338.8925 0009470  48.2809 311.9241 15.31020951486865
0 LKW-3
1 43146U 18006A   26158.27654640  .00011903  00000-0  35229-3 0  9997
2 43146  97.6610 318.4650 0002881   7.1176 353.0107 15.35052152467192
0 LKW-2
1 43080U 17084A   26158.25985959  .00007420  00000-0  28935-3 0  9992
2 43080  97.1194 198.5204 0000244 325.3493  34.7730 15.26209561470176
0 VRSS-2
1 42954U 17060A   26158.25653100  .00000802  00000-0  10921-3 0  9998
2 42954  97.6513 196.4305 0018140 128.7229 231.5610 14.81176900466988
