OBJECT_NAME,OBJECT_ID,EPOCH,MEAN_MOTION,ECCENTRICITY,INCLINATION,RA_OF_ASC_NODE,ARG_OF_PERICENTER,MEAN_ANOMALY,EPHEMERIS_TYPE,CLASSIFICATION_TYPE,NORAD_CAT_ID,ELEMENT_SET_NO,REV_AT_EPOCH,BSTAR,MEAN_MOTION_DOT,MEAN_MOTION_DDOT
TANSAT,2016-081A,2026-06-07T05:48:52.092576,14.59942742,.00203084,98.5367,158.2065,343.9810,16.0744,0,U,41898,999,50317,.8967931E-4,.38E-5,0
JILIN-1 03,2017-002B,2026-06-07T06:55:19.236576,15.41333103,.00054857,97.1952,165.5143,186.2268,173.8912,0,U,41914,999,52033,.32109357E-3,.13317E-3,0
CARTOSAT-2D,2017-008A,2026-06-07T05:07:00.765120,15.19255456,.0003674,97.4121,217.7045,275.5836,84.4979,0,U,41948,999,51606,-.9931E-4,-.2158E-4,0
CARTOSAT-2E,2017-036C,2026-06-07T05:32:20.318208,15.19247949,.00032413,97.4277,218.1973,1.8587,358.2659,0,U,42767,999,49663,.28501547E-3,.594E-4,0
D-SAT,2017-036AF,2026-06-06T16:12:41.927328,15.16929147,.00813781,97.5557,136.6206,196.9112,162.9406,0,U,42794,999,48926,.33904054E-3,.7209E-4,0
IRIDIUM 113,2017-039A,2026-06-07T04:38:55.201344,14.34217808,.00023092,86.3962,326.3575,90.4468,269.6992,0,U,42803,999,46975,.58582586E-4,.184E-5,0
NORSAT 2,2017-042D,2026-06-07T05:32:01.014720,15.21734843,.00107815,97.4043,331.8314,87.9361,272.3109,0,U,42828,999,48622,.5422958E-3,.12246E-3,0
TECHNOSAT,2017-042E,2026-06-07T00:14:02.158944,15.04893850,.00189227,97.4271,316.0569,126.2064,234.0916,0,U,42829,999,48517,.22363965E-3,.3117E-4,0
FLYING LAPTOP,2017-042G,2026-06-07T07:40:45.911712,15.01081705,.00190102,97.4653,314.2358,153.8139,206.4051,0,U,42831,999,48497,.34860958E-3,.4419E-4,0
WNISAT 1R,2017-042L,2026-06-07T03:55:57.373536,15.01719289,.00099545,97.4833,314.6454,182.5840,177.5335,0,U,42835,999,48500,.22492714E-3,.2871E-4,0
LEMUR-2-GREENBERG,2017-042N,2026-06-07T05:15:18.658080,15.31020951,.00094699,97.3821,338.8925,48.2809,311.9241,0,U,42837,999,48686,.59289397E-3,.17738E-3,0
LEMUR-2-FURIAUS,2017-042R,2026-06-07T00:13:37.435584,15.29916842,.00085658,97.3774,336.6626,100.4881,259.7326,0,U,42840,999,48665,.67415743E-3,.19501E-3,0
CORVUS BC2,2017-042X,2026-06-06T16:46:05.947680,15.06231398,.00141517,97.4066,319.4581,142.1285,218.0941,0,U,42846,999,48548,.26633895E-3,.3855E-4,0
CORVUS BC1,2017-042Y,2026-06-06T05:30:28.381824,15.06396296,.00133651,97.4093,319.8140,122.2429,238.0096,0,U,42847,999,48544,.25816413E-3,.3751E-4,0
VRSS-2,2017-060A,2026-06-07T06:09:24.278400,14.81176900,.00181401,97.6513,196.4305,128.7229,231.5610,0,U,42954,999,46698,.10920535E-3,.802E-5,0
MOHAMMED VI-A,2017-070A,2026-06-07T06:03:52.733088,14.77058425,.00015582,97.9555,230.7208,71.6665,288.4715,0,U,43005,999,46251,.15665384E-3,.1055E-4,0
FENGYUN 3D,2017-072A,2026-06-07T06:44:28.311936,14.19736851,.00026615,99.0128,132.5248,77.4032,282.7440,0,U,43010,999,44358,.15632568E-4,-.13E-6,0
CZ-4C R/B,2017-072C,2026-06-07T00:38:15.805248,14.58771893,.0122445,98.5785,265.6940,182.6472,177.4093,0,U,43012,999,45515,.12224055E-3,.577E-5,0
NOAA 20 (JPSS-1),2017-073A,2026-06-07T01:30:21.510144,14.19509897,.00005206,98.7769,97.6155,39.1550,320.9664,0,U,43013,999,44303,.56487193E-4,.75E-6,0
MAKERSAT 0,2017-073D,2026-06-06T14:21:22.122144,15.31712547,.01062905,97.4643,40.0370,311.3073,47.9054,0,U,43016,999,46484,.72748152E-3,.26582E-3,0
RADFXSAT (FOX-1B),2017-073E,2026-06-06T14:58:24.312000,15.12539966,.01511744,97.4716,25.0553,5.8791,354.4168,0,U,43017,999,46379,.50849039E-3,.11671E-3,0
JILIN-1 04,2017-074A,2026-06-07T00:43:00.094080,15.42187278,.00032484,97.4846,267.3745,214.7016,145.4019,0,U,43022,999,47270,.34609492E-3,.14768E-3,0
JILIN-1 05,2017-074B,2026-06-07T00:12:59.440320,15.33717148,.00037366,97.4853,264.0276,259.7239,100.3582,0,U,43023,999,47244,.2811124E-3,.9087E-4,0
JILIN-1 06,2017-074C,2026-06-07T01:04:30.236160,15.33584729,.0005285,97.4781,261.0860,276.0594,84.0046,0,U,43024,999,47228,.18811565E-3,.6028E-4,0
IRIDIUM 116,2017-083C,2026-06-07T04:02:23.097696,14.34217644,.00018758,86.3956,326.1910,93.1118,267.0293,0,U,43072,999,44273,.80389655E-4,.245E-5,0
IRIDIUM 130,2017-083D,2026-06-07T04:57:11.132640,14.34217734,.00019981,86.3966,326.4501,87.1530,272.9894,0,U,43073,999,44268,.79331421E-4,.242E-5,0
LKW-2,2017-084A,2026-06-07T06:14:11.868576,15.26209561,.0000244,97.1194,198.5204,325.3493,34.7730,0,U,43080,999,47017,.28934858E-3,.742E-4,0
SUPERVIEW-1 03,2018-002A,2026-06-07T06:48:00.616608,15.38928607,.00465919,97.3127,243.1389,215.1678,144.6491,0,U,43099,999,46684,.43158907E-3,.17194E-3,0
CARTOSAT-2F,2018-004A,2026-06-07T06:18:13.322016,15.19299337,.00001432,97.4785,217.9944,28.1107,332.0135,0,U,43111,999,46582,.25370195E-3,.5287E-4,0
LKW-3,2018-006A,2026-06-07T06:38:13.608960,15.35052152,.00028805,97.6610,318.4650,7.1176,353.0107,0,U,43146,999,46719,.35229484E-3,.11903E-3,0
